GLOBALSTAR M035         
1 25851U 99037A   24201.38507209 -.00000061  00000+0  96454-4 0  9991
2 25851  51.9960  77.1404 0013210 159.7444  11.4323 11.04531026 59480
GLOBALSTAR M032         
1 25852U 99037B   24201.51190442 -.00000038  00000+0  92993-3 0  9991
2 25852  51.9956 285.0125 0009677 325.4252  34.5918 11.19059681 97540
GLOBALSTAR M051         
1 25853U 99037C   24201.50567884 -.00000102  00000+0 -74839-3 0  9991
2 25853  51.9788 123.4396 0001785 353.5096   6.5691 11.42199347 94374
GLOBALSTAR M030         
1 25854U 99037D   24201.61676513 -.00000029  00000+0  96662-3 0  9999
2 25854  51.9898 310.4283 0004148 165.8654 194.2280 11.55098785111715
GLOBALSTAR M048         
1 25872U 99041A   24201.48530889 -.00000050  00000+0  54622-3 0  9998
2 25872  51.9384  45.6596 0013265 332.4341  37.4072 11.33847412 87246
GLOBALSTAR M026         
1 25873U 99041B   24201.37466975  .00000010  00000+0  27235-2 0  9995
2 25873  51.9968 198.6238 0001261  39.5095 109.1102 11.06834518111636
GLOBALSTAR M043         
1 25874U 99041C   24201.30185935 -.00000015  00000+0  15720-2 0  9995
2 25874  51.9388 140.4712 0012435 100.5989  59.7265 11.25681421 85387
GLOBALSTAR M028         
1 25875U 99041D   24201.42614827 -.00000066  00000+0  22251-3 0  9990
2 25875  51.9622 105.2828 0064056  68.6278 292.1403 12.50559556148544
